Company Name,Country,Address,Email,Contact Name,Position,Phone,Website,Raw Data
Logenix International(Kabul),Afghanistan,"House#55, Lane 1, Sherpoor Street,Shaheed Square, Shar-e-Naw,Kabul, Afghanistan",asalam@logenix.com,Mr. AzamDurrani,Director Middle East,+92 336 208 3419 (Mr. Akbar Salam),http://www.logenix.com/,"Address:
House#55, Lane 1, Sherpoor Street,Shaheed Square, Shar-e-Naw,Kabul, Afghanistan
Phone:
+93 788 106 008, +93 778 829 054
Fax:
+93 785 800 754
Emergency Call:
+92 336 208 3419 (Mr. Akbar Salam)
Website:
http://www.logenix.com/
Email:
asalam@logenix.com
;
adurrani@logenix.com
;
tshalizi@logenix.com
Name:
Mr. AzamDurrani
Title:
Director Middle East
Email
adurrani@logenix.com
Name:
Mr. AkbarSalam
Title:
Manager Business Development
Direct Line
+93 202 213 885
Email
asalam@logenix.com
Mobile
+971 588 821 766, +93 788 106 008
Name:
Mr. TariqShalizi
Title:
Country Manager Afghanistan
Direct Line
+93 788 106 008, +93 778 829 054, +93 202 213 885
Email
tshalizi@logenix.com
Mobile
+93 786 306 633, +971 588 821 766
Name:
Mr. MahboobullahAhmadi
Title:
Deputy Operations Manager (AFG)
Direct Line
+93 79 366 0652
Email
mahmadi@logenix.com
Mobile
+93 78 630 6633"
Logenix International(Kabul),Afghanistan,"House#55, Lane 1, Sherpoor Street,Shaheed Square, Shar-e-Naw,Kabul, Afghanistan",adurrani@logenix.com,Mr. AkbarSalam,Manager Business Development,+92 336 208 3419 (Mr. Akbar Salam),http://www.logenix.com/,"Address:
House#55, Lane 1, Sherpoor Street,Shaheed Square, Shar-e-Naw,Kabul, Afghanistan
Phone:
+93 788 106 008, +93 778 829 054
Fax:
+93 785 800 754
Emergency Call:
+92 336 208 3419 (Mr. Akbar Salam)
Website:
http://www.logenix.com/
Email:
asalam@logenix.com
;
adurrani@logenix.com
;
tshalizi@logenix.com
Name:
Mr. AzamDurrani
Title:
Director Middle East
Email
adurrani@logenix.com
Name:
Mr. AkbarSalam
Title:
Manager Business Development
Direct Line
+93 202 213 885
Email
asalam@logenix.com
Mobile
+971 588 821 766, +93 788 106 008
Name:
Mr. TariqShalizi
Title:
Country Manager Afghanistan
Direct Line
+93 788 106 008, +93 778 829 054, +93 202 213 885
Email
tshalizi@logenix.com
Mobile
+93 786 306 633, +971 588 821 766
Name:
Mr. MahboobullahAhmadi
Title:
Deputy Operations Manager (AFG)
Direct Line
+93 79 366 0652
Email
mahmadi@logenix.com
Mobile
+93 78 630 6633"
Logenix International(Kabul),Afghanistan,"House#55, Lane 1, Sherpoor Street,Shaheed Square, Shar-e-Naw,Kabul, Afghanistan",asalam@logenix.com,Mr. TariqShalizi,Country Manager Afghanistan,"+971 588 821 766, +93 788 106 008",http://www.logenix.com/,"Address:
House#55, Lane 1, Sherpoor Street,Shaheed Square, Shar-e-Naw,Kabul, Afghanistan
Phone:
+93 788 106 008, +93 778 829 054
Fax:
+93 785 800 754
Emergency Call:
+92 336 208 3419 (Mr. Akbar Salam)
Website:
http://www.logenix.com/
Email:
asalam@logenix.com
;
adurrani@logenix.com
;
tshalizi@logenix.com
Name:
Mr. AzamDurrani
Title:
Director Middle East
Email
adurrani@logenix.com
Name:
Mr. AkbarSalam
Title:
Manager Business Development
Direct Line
+93 202 213 885
Email
asalam@logenix.com
Mobile
+971 588 821 766, +93 788 106 008
Name:
Mr. TariqShalizi
Title:
Country Manager Afghanistan
Direct Line
+93 788 106 008, +93 778 829 054, +93 202 213 885
Email
tshalizi@logenix.com
Mobile
+93 786 306 633, +971 588 821 766
Name:
Mr. MahboobullahAhmadi
Title:
Deputy Operations Manager (AFG)
Direct Line
+93 79 366 0652
Email
mahmadi@logenix.com
Mobile
+93 78 630 6633"
Logenix International(Kabul),Afghanistan,"House#55, Lane 1, Sherpoor Street,Shaheed Square, Shar-e-Naw,Kabul, Afghanistan",tshalizi@logenix.com,Mr. MahboobullahAhmadi,Deputy Operations Manager (AFG),"+93 786 306 633, +971 588 821 766",http://www.logenix.com/,"Address:
House#55, Lane 1, Sherpoor Street,Shaheed Square, Shar-e-Naw,Kabul, Afghanistan
Phone:
+93 788 106 008, +93 778 829 054
Fax:
+93 785 800 754
Emergency Call:
+92 336 208 3419 (Mr. Akbar Salam)
Website:
http://www.logenix.com/
Email:
asalam@logenix.com
;
adurrani@logenix.com
;
tshalizi@logenix.com
Name:
Mr. AzamDurrani
Title:
Director Middle East
Email
adurrani@logenix.com
Name:
Mr. AkbarSalam
Title:
Manager Business Development
Direct Line
+93 202 213 885
Email
asalam@logenix.com
Mobile
+971 588 821 766, +93 788 106 008
Name:
Mr. TariqShalizi
Title:
Country Manager Afghanistan
Direct Line
+93 788 106 008, +93 778 829 054, +93 202 213 885
Email
tshalizi@logenix.com
Mobile
+93 786 306 633, +971 588 821 766
Name:
Mr. MahboobullahAhmadi
Title:
Deputy Operations Manager (AFG)
Direct Line
+93 79 366 0652
Email
mahmadi@logenix.com
Mobile
+93 78 630 6633"
"ACTCO – Afghan Container Transport Company(Kabul, Head Office)",Afghanistan,"House No. 252. St. No.2 , Left West Of Charahi – Haji Yaqub,Kabul, AfghanistanMailing: P.O. Box 3165, Kabul, Afghanistan",info@actcogrp.com,Mr. Gaurav Kukreja,Managing Director,"+93.70.214666,",http://www.actcogrp.com/,"Address:
House No. 252. St. No.2 , Left West Of Charahi – Haji Yaqub,Kabul, AfghanistanMailing: P.O. Box 3165, Kabul, Afghanistan
Phone:
+93.70.214666,
+93.799.334944 (Mr. Ali),
+93.799.109555 (Mr. Feraidun)
Emergency Call:
+93.70.214666,
+93.799.334944 (Mr. Ali),
+93.799.109555 (Mr. Feraidun)
Website:
http://www.actcogrp.com/
Email:
info@actcogrp.com
;
gaurav@actcogrp.com
;
kabul@actcogrp.com
;
cs.dxb@actcogrp.com
Name:
Mr. Gaurav Kukreja
Title:
Managing Director
Direct Line
+971.4.353.3992
Email
gaurav@actcogrp.com
Fax
+971.4.353.3991
Mobile
+971.50.645.2849 / +971.55.956.6877
Name:
Mrs. RathikaHarish
Title:
Customer Care Executive
Direct Line
+971.4.353.3992
Email
cs.dxb@actcogrp.com
Fax
+971.4.353.3991
Mobile
+971.55.956.6030"
"ACTCO – Afghan Container Transport Company(Kabul, Head Office)",Afghanistan,"House No. 252. St. No.2 , Left West Of Charahi – Haji Yaqub,Kabul, AfghanistanMailing: P.O. Box 3165, Kabul, Afghanistan",gaurav@actcogrp.com,Mrs. RathikaHarish,Customer Care Executive,+971.50.645.2849 / +971.55.956.6877,http://www.actcogrp.com/,"Address:
House No. 252. St. No.2 , Left West Of Charahi – Haji Yaqub,Kabul, AfghanistanMailing: P.O. Box 3165, Kabul, Afghanistan
Phone:
+93.70.214666,
+93.799.334944 (Mr. Ali),
+93.799.109555 (Mr. Feraidun)
Emergency Call:
+93.70.214666,
+93.799.334944 (Mr. Ali),
+93.799.109555 (Mr. Feraidun)
Website:
http://www.actcogrp.com/
Email:
info@actcogrp.com
;
gaurav@actcogrp.com
;
kabul@actcogrp.com
;
cs.dxb@actcogrp.com
Name:
Mr. Gaurav Kukreja
Title:
Managing Director
Direct Line
+971.4.353.3992
Email
gaurav@actcogrp.com
Fax
+971.4.353.3991
Mobile
+971.50.645.2849 / +971.55.956.6877
Name:
Mrs. RathikaHarish
Title:
Customer Care Executive
Direct Line
+971.4.353.3992
Email
cs.dxb@actcogrp.com
Fax
+971.4.353.3991
Mobile
+971.55.956.6030"
"Asia Pamir Logistics Ltd.(Kabul, Head Office)",Afghanistan,"Muslim Business Center,Haji Yaqub Squire, Shar-e-now,Kabul 1003, Afghanistan",sharifi@asiapamir.com,Mr. HamidSharifi,CEO & Director,+93 70 038 0630,http://www.asiapamir.com/,"Address:
Muslim Business Center,Haji Yaqub Squire, Shar-e-now,Kabul 1003, Afghanistan
Phone:
+93.20.2213603
Website:
http://www.asiapamir.com/
Name:
Mr. HamidSharifi
Title:
CEO & Director
Direct Line
+93 70 038 0630
Email
sharifi@asiapamir.com
Name:
Mr. Fida Mohammad Nazari
Title:
Operations Supervisor	(Aid ,Relief & Commercial projects)
Direct Line
+93 20 221 3603
Email
ops@asiapamir.com
Mobile
+93 79 6476 2222
Name:
Mr. Abdul Hadi Karimi
Title:
Operations-Military & Defense Projects
Direct Line
+93 20 221 3603
Email
ops2@asiapamir.com
Name:
Mr. Nesar Ahmad Naziri
Title:
Sales & Pricing Department
Direct Line
+93 79 646 2222
Email
sales@asiapamir.com
Mobile
+93 78 886 6818"
"Asia Pamir Logistics Ltd.(Kabul, Head Office)",Afghanistan,"Muslim Business Center,Haji Yaqub Squire, Shar-e-now,Kabul 1003, Afghanistan",ops@asiapamir.com,Mr. Fida Mohammad Nazari,"Operations Supervisor	(Aid ,Relief & Commercial projects)",+93 20 221 3603,http://www.asiapamir.com/,"Address:
Muslim Business Center,Haji Yaqub Squire, Shar-e-now,Kabul 1003, Afghanistan
Phone:
+93.20.2213603
Website:
http://www.asiapamir.com/
Name:
Mr. HamidSharifi
Title:
CEO & Director
Direct Line
+93 70 038 0630
Email
sharifi@asiapamir.com
Name:
Mr. Fida Mohammad Nazari
Title:
Operations Supervisor	(Aid ,Relief & Commercial projects)
Direct Line
+93 20 221 3603
Email
ops@asiapamir.com
Mobile
+93 79 6476 2222
Name:
Mr. Abdul Hadi Karimi
Title:
Operations-Military & Defense Projects
Direct Line
+93 20 221 3603
Email
ops2@asiapamir.com
Name:
Mr. Nesar Ahmad Naziri
Title:
Sales & Pricing Department
Direct Line
+93 79 646 2222
Email
sales@asiapamir.com
Mobile
+93 78 886 6818"
"Asia Pamir Logistics Ltd.(Kabul, Head Office)",Afghanistan,"Muslim Business Center,Haji Yaqub Squire, Shar-e-now,Kabul 1003, Afghanistan",ops2@asiapamir.com,Mr. Abdul Hadi Karimi,Operations-Military & Defense Projects,+93 20 221 3603,http://www.asiapamir.com/,"Address:
Muslim Business Center,Haji Yaqub Squire, Shar-e-now,Kabul 1003, Afghanistan
Phone:
+93.20.2213603
Website:
http://www.asiapamir.com/
Name:
Mr. HamidSharifi
Title:
CEO & Director
Direct Line
+93 70 038 0630
Email
sharifi@asiapamir.com
Name:
Mr. Fida Mohammad Nazari
Title:
Operations Supervisor	(Aid ,Relief & Commercial projects)
Direct Line
+93 20 221 3603
Email
ops@asiapamir.com
Mobile
+93 79 6476 2222
Name:
Mr. Abdul Hadi Karimi
Title:
Operations-Military & Defense Projects
Direct Line
+93 20 221 3603
Email
ops2@asiapamir.com
Name:
Mr. Nesar Ahmad Naziri
Title:
Sales & Pricing Department
Direct Line
+93 79 646 2222
Email
sales@asiapamir.com
Mobile
+93 78 886 6818"
"Asia Pamir Logistics Ltd.(Kabul, Head Office)",Afghanistan,"Muslim Business Center,Haji Yaqub Squire, Shar-e-now,Kabul 1003, Afghanistan",sales@asiapamir.com,Mr. Nesar Ahmad Naziri,Sales & Pricing Department,+93 79 646 2222,http://www.asiapamir.com/,"Address:
Muslim Business Center,Haji Yaqub Squire, Shar-e-now,Kabul 1003, Afghanistan
Phone:
+93.20.2213603
Website:
http://www.asiapamir.com/
Name:
Mr. HamidSharifi
Title:
CEO & Director
Direct Line
+93 70 038 0630
Email
sharifi@asiapamir.com
Name:
Mr. Fida Mohammad Nazari
Title:
Operations Supervisor	(Aid ,Relief & Commercial projects)
Direct Line
+93 20 221 3603
Email
ops@asiapamir.com
Mobile
+93 79 6476 2222
Name:
Mr. Abdul Hadi Karimi
Title:
Operations-Military & Defense Projects
Direct Line
+93 20 221 3603
Email
ops2@asiapamir.com
Name:
Mr. Nesar Ahmad Naziri
Title:
Sales & Pricing Department
Direct Line
+93 79 646 2222
Email
sales@asiapamir.com
Mobile
+93 78 886 6818"
"SKY NET  Logistic Sh.P.K.(Tirana, Head Office)",Albania,"Terminal Center, Kati 4,Autostrada Tirane-Durres Km. 0,1050 Tirana, Albania",info@skynet.al,Ms. DoraPrifti,Air Cargo Agent (Air & Sea Department),+355 68 205 8501 (Mr. Erjon Ndreu),https://skynet.al/,"Address:
Terminal Center, Kati 4,Autostrada Tirane-Durres Km. 0,1050 Tirana, Albania
Phone:
+355 4 451 0000
Fax:
(N/A)
Emergency Call:
+355 68 205 8501 (Mr. Erjon Ndreu)
Website:
https://skynet.al/
Email:
info@skynet.al
Name:
Ms. DoraPrifti
Title:
Air Cargo Agent (Air & Sea Department)
Direct Line
+355 4 451 0000
Email
dora.prifti@skynet.al
Mobile
+355 69 709 7845
Name:
Mr. ErjonNdreu
Title:
Executive & Operational Director
Direct Line
+355 4 451 0000
Email
erjon.ndreu@skynet.al
Mobile
+355 68 205 8501"
"SKY NET  Logistic Sh.P.K.(Tirana, Head Office)",Albania,"Terminal Center, Kati 4,Autostrada Tirane-Durres Km. 0,1050 Tirana, Albania",dora.prifti@skynet.al,Mr. ErjonNdreu,Executive & Operational Director,+355 69 709 7845,https://skynet.al/,"Address:
Terminal Center, Kati 4,Autostrada Tirane-Durres Km. 0,1050 Tirana, Albania
Phone:
+355 4 451 0000
Fax:
(N/A)
Emergency Call:
+355 68 205 8501 (Mr. Erjon Ndreu)
Website:
https://skynet.al/
Email:
info@skynet.al
Name:
Ms. DoraPrifti
Title:
Air Cargo Agent (Air & Sea Department)
Direct Line
+355 4 451 0000
Email
dora.prifti@skynet.al
Mobile
+355 69 709 7845
Name:
Mr. ErjonNdreu
Title:
Executive & Operational Director
Direct Line
+355 4 451 0000
Email
erjon.ndreu@skynet.al
Mobile
+355 68 205 8501"
"Pelikan Sh.p.k(Durres, Head Office)",Albania,"Egnatia Str, Fly Tower, 13th floor,2001, Durres, Albania",export@pelikantransport.com,Mr. Genc Mataj,General Manager,,http://www.pelikantransport.com/,"Address:
Egnatia Str, Fly Tower, 13th floor,2001, Durres, Albania
Phone:
+355.52.225510
Fax:
+355.52.225511
Website:
http://www.pelikantransport.com/
Email:
info@pelikantransport.com
Name:
Import Department (Imports to Albania)
Email
import@pelikantransport.com
Name:
Export Department (Exports from Albania)
Email
export@pelikantransport.com
Name:
Mr. Genc Mataj
Title:
General Manager
Email
gmataj@pelikantransport.com
Name:
Mr. AlfredXholi
Title:
Office Manager
Email
axholi@pelikantransport.com
Name:
Mr. ValbonaMamunanaj
Title:
Finance Manager
Email
finance@pelikantransport.com"
"Pelikan Sh.p.k(Durres, Head Office)",Albania,"Egnatia Str, Fly Tower, 13th floor,2001, Durres, Albania",gmataj@pelikantransport.com,Mr. AlfredXholi,Office Manager,,http://www.pelikantransport.com/,"Address:
Egnatia Str, Fly Tower, 13th floor,2001, Durres, Albania
Phone:
+355.52.225510
Fax:
+355.52.225511
Website:
http://www.pelikantransport.com/
Email:
info@pelikantransport.com
Name:
Import Department (Imports to Albania)
Email
import@pelikantransport.com
Name:
Export Department (Exports from Albania)
Email
export@pelikantransport.com
Name:
Mr. Genc Mataj
Title:
General Manager
Email
gmataj@pelikantransport.com
Name:
Mr. AlfredXholi
Title:
Office Manager
Email
axholi@pelikantransport.com
Name:
Mr. ValbonaMamunanaj
Title:
Finance Manager
Email
finance@pelikantransport.com"
"Pelikan Sh.p.k(Durres, Head Office)",Albania,"Egnatia Str, Fly Tower, 13th floor,2001, Durres, Albania",axholi@pelikantransport.com,Mr. ValbonaMamunanaj,Finance Manager,,http://www.pelikantransport.com/,"Address:
Egnatia Str, Fly Tower, 13th floor,2001, Durres, Albania
Phone:
+355.52.225510
Fax:
+355.52.225511
Website:
http://www.pelikantransport.com/
Email:
info@pelikantransport.com
Name:
Import Department (Imports to Albania)
Email
import@pelikantransport.com
Name:
Export Department (Exports from Albania)
Email
export@pelikantransport.com
Name:
Mr. Genc Mataj
Title:
General Manager
Email
gmataj@pelikantransport.com
Name:
Mr. AlfredXholi
Title:
Office Manager
Email
axholi@pelikantransport.com
Name:
Mr. ValbonaMamunanaj
Title:
Finance Manager
Email
finance@pelikantransport.com"
SBA Albania Sh.p.k.(Tirana),Albania,"Rr.”Vangjush Furxhi”, Nd.6, H.4, Ap.1 Njesia Bashkiake Nr.10, 1001, Tirana, Albania",albania@sba-group.net,Mr. Makis Mavroeidis,Executive Director,+355.6920.52157,http://www.sba-group.net/,"Address:
Rr.”Vangjush Furxhi”, Nd.6, H.4, Ap.1 Njesia Bashkiake Nr.10, 1001, Tirana, Albania
Phone:
+355.42.251.850
Fax:
+355.42.250.252
Emergency Call:
+355.6920.52157
Website:
http://www.sba-group.net/
Email:
albania@sba-group.net
Name:
Mr. Makis Mavroeidis
Title:
Executive Director
Email
makis.mavroeidis@sba-group.net
Name:
Mr. Arben Lapi
Title:
Country Director
Email
arben.lapi@sba-group.net
Name:
Mrs. AlbanaHoxha
Title:
Freight Forwarder
Email
albana.hoxha@sba-group.net
Name:
Mrs. XhovanaMusagalliu
Title:
Freight Forwarder
Email
xhovana.musagalliu@sba-group.net
Name:
Mr. JaniMiska
Title:
Sales Director
Email
jani.miska@sba-group.net
Name:
Mrs. ArjolaRrogozi
Title:
Financial Assistant
Email
arjola.rrogozi@sba-group.net"
SBA Albania Sh.p.k.(Tirana),Albania,"Rr.”Vangjush Furxhi”, Nd.6, H.4, Ap.1 Njesia Bashkiake Nr.10, 1001, Tirana, Albania",makis.mavroeidis@sba-group.net,Mr. Arben Lapi,Country Director,+355.6920.52157,http://www.sba-group.net/,"Address:
Rr.”Vangjush Furxhi”, Nd.6, H.4, Ap.1 Njesia Bashkiake Nr.10, 1001, Tirana, Albania
Phone:
+355.42.251.850
Fax:
+355.42.250.252
Emergency Call:
+355.6920.52157
Website:
http://www.sba-group.net/
Email:
albania@sba-group.net
Name:
Mr. Makis Mavroeidis
Title:
Executive Director
Email
makis.mavroeidis@sba-group.net
Name:
Mr. Arben Lapi
Title:
Country Director
Email
arben.lapi@sba-group.net
Name:
Mrs. AlbanaHoxha
Title:
Freight Forwarder
Email
albana.hoxha@sba-group.net
Name:
Mrs. XhovanaMusagalliu
Title:
Freight Forwarder
Email
xhovana.musagalliu@sba-group.net
Name:
Mr. JaniMiska
Title:
Sales Director
Email
jani.miska@sba-group.net
Name:
Mrs. ArjolaRrogozi
Title:
Financial Assistant
Email
arjola.rrogozi@sba-group.net"
SBA Albania Sh.p.k.(Tirana),Albania,"Rr.”Vangjush Furxhi”, Nd.6, H.4, Ap.1 Njesia Bashkiake Nr.10, 1001, Tirana, Albania",arben.lapi@sba-group.net,Mrs. AlbanaHoxha,Freight Forwarder,+355.6920.52157,http://www.sba-group.net/,"Address:
Rr.”Vangjush Furxhi”, Nd.6, H.4, Ap.1 Njesia Bashkiake Nr.10, 1001, Tirana, Albania
Phone:
+355.42.251.850
Fax:
+355.42.250.252
Emergency Call:
+355.6920.52157
Website:
http://www.sba-group.net/
Email:
albania@sba-group.net
Name:
Mr. Makis Mavroeidis
Title:
Executive Director
Email
makis.mavroeidis@sba-group.net
Name:
Mr. Arben Lapi
Title:
Country Director
Email
arben.lapi@sba-group.net
Name:
Mrs. AlbanaHoxha
Title:
Freight Forwarder
Email
albana.hoxha@sba-group.net
Name:
Mrs. XhovanaMusagalliu
Title:
Freight Forwarder
Email
xhovana.musagalliu@sba-group.net
Name:
Mr. JaniMiska
Title:
Sales Director
Email
jani.miska@sba-group.net
Name:
Mrs. ArjolaRrogozi
Title:
Financial Assistant
Email
arjola.rrogozi@sba-group.net"
SBA Albania Sh.p.k.(Tirana),Albania,"Rr.”Vangjush Furxhi”, Nd.6, H.4, Ap.1 Njesia Bashkiake Nr.10, 1001, Tirana, Albania",albana.hoxha@sba-group.net,Mrs. XhovanaMusagalliu,Freight Forwarder,+355.6920.52157,http://www.sba-group.net/,"Address:
Rr.”Vangjush Furxhi”, Nd.6, H.4, Ap.1 Njesia Bashkiake Nr.10, 1001, Tirana, Albania
Phone:
+355.42.251.850
Fax:
+355.42.250.252
Emergency Call:
+355.6920.52157
Website:
http://www.sba-group.net/
Email:
albania@sba-group.net
Name:
Mr. Makis Mavroeidis
Title:
Executive Director
Email
makis.mavroeidis@sba-group.net
Name:
Mr. Arben Lapi
Title:
Country Director
Email
arben.lapi@sba-group.net
Name:
Mrs. AlbanaHoxha
Title:
Freight Forwarder
Email
albana.hoxha@sba-group.net
Name:
Mrs. XhovanaMusagalliu
Title:
Freight Forwarder
Email
xhovana.musagalliu@sba-group.net
Name:
Mr. JaniMiska
Title:
Sales Director
Email
jani.miska@sba-group.net
Name:
Mrs. ArjolaRrogozi
Title:
Financial Assistant
Email
arjola.rrogozi@sba-group.net"
SBA Albania Sh.p.k.(Tirana),Albania,"Rr.”Vangjush Furxhi”, Nd.6, H.4, Ap.1 Njesia Bashkiake Nr.10, 1001, Tirana, Albania",xhovana.musagalliu@sba-group.net,Mr. JaniMiska,Sales Director,+355.6920.52157,http://www.sba-group.net/,"Address:
Rr.”Vangjush Furxhi”, Nd.6, H.4, Ap.1 Njesia Bashkiake Nr.10, 1001, Tirana, Albania
Phone:
+355.42.251.850
Fax:
+355.42.250.252
Emergency Call:
+355.6920.52157
Website:
http://www.sba-group.net/
Email:
albania@sba-group.net
Name:
Mr. Makis Mavroeidis
Title:
Executive Director
Email
makis.mavroeidis@sba-group.net
Name:
Mr. Arben Lapi
Title:
Country Director
Email
arben.lapi@sba-group.net
Name:
Mrs. AlbanaHoxha
Title:
Freight Forwarder
Email
albana.hoxha@sba-group.net
Name:
Mrs. XhovanaMusagalliu
Title:
Freight Forwarder
Email
xhovana.musagalliu@sba-group.net
Name:
Mr. JaniMiska
Title:
Sales Director
Email
jani.miska@sba-group.net
Name:
Mrs. ArjolaRrogozi
Title:
Financial Assistant
Email
arjola.rrogozi@sba-group.net"
SBA Albania Sh.p.k.(Tirana),Albania,"Rr.”Vangjush Furxhi”, Nd.6, H.4, Ap.1 Njesia Bashkiake Nr.10, 1001, Tirana, Albania",jani.miska@sba-group.net,Mrs. ArjolaRrogozi,Financial Assistant,+355.6920.52157,http://www.sba-group.net/,"Address:
Rr.”Vangjush Furxhi”, Nd.6, H.4, Ap.1 Njesia Bashkiake Nr.10, 1001, Tirana, Albania
Phone:
+355.42.251.850
Fax:
+355.42.250.252
Emergency Call:
+355.6920.52157
Website:
http://www.sba-group.net/
Email:
albania@sba-group.net
Name:
Mr. Makis Mavroeidis
Title:
Executive Director
Email
makis.mavroeidis@sba-group.net
Name:
Mr. Arben Lapi
Title:
Country Director
Email
arben.lapi@sba-group.net
Name:
Mrs. AlbanaHoxha
Title:
Freight Forwarder
Email
albana.hoxha@sba-group.net
Name:
Mrs. XhovanaMusagalliu
Title:
Freight Forwarder
Email
xhovana.musagalliu@sba-group.net
Name:
Mr. JaniMiska
Title:
Sales Director
Email
jani.miska@sba-group.net
Name:
Mrs. ArjolaRrogozi
Title:
Financial Assistant
Email
arjola.rrogozi@sba-group.net"
Interliner Agencies d.o.o.(Tirana),Albania,"Prane Doganes,Tirana, Albania",tirana@interliner-agencies.com,Mr. VlatkoHristovski,Executive Director,+389.70.204.790 (Mr. Vlatko Hristovski),http://www.interliner-agencies.com/,"Address:
Prane Doganes,Tirana, Albania
Phone:
+389.2.240.1930
Fax:
+389.2.240.1940
Emergency Call:
+389.70.204.790 (Mr. Vlatko Hristovski)
Website:
http://www.interliner-agencies.com/
Email:
tirana@interliner-agencies.com
Name:
Mr. VlatkoHristovski
Title:
Executive Director
Email
vlatko.hristovski@interliner-agencies.com
Mobile
+389 70 204 790
Name:
Mr. Ankush Bahl
Title:
Managing Director
Mobile
+386 41 757 740"
Interliner Agencies d.o.o.(Tirana),Albania,"Prane Doganes,Tirana, Albania",vlatko.hristovski@interliner-agencies.com,Mr. Ankush Bahl,Managing Director,+389 70 204 790,http://www.interliner-agencies.com/,"Address:
Prane Doganes,Tirana, Albania
Phone:
+389.2.240.1930
Fax:
+389.2.240.1940
Emergency Call:
+389.70.204.790 (Mr. Vlatko Hristovski)
Website:
http://www.interliner-agencies.com/
Email:
tirana@interliner-agencies.com
Name:
Mr. VlatkoHristovski
Title:
Executive Director
Email
vlatko.hristovski@interliner-agencies.com
Mobile
+389 70 204 790
Name:
Mr. Ankush Bahl
Title:
Managing Director
Mobile
+386 41 757 740"
